NORAD_CAT_ID,OBJECT_NAME,OBJECT_TYPE,EPOCH,MEAN_MOTION,ECCENTRICITY,INCLINATION,RA_OF_ASC_NODE,ARG_OF_PERICENTER,MEAN_ANOMALY,BSTAR,MEAN_MOTION_DOT,MEAN_MOTION_DDOT,TLE_LINE0,TLE_LINE1,TLE_LINE2,SEMIMAJOR_AXIS,PERIOD,APOGEE,PERIGEE,DECAYED
53633.0,STARLINK-4593,PAYLOAD,2024-02-13 03:31:27,15.08843731,0.0001408,53.2179,15.906,103.476,256.6389,2.7806e-05,1.55e-06,0.0,0 STARLINK-4593,1 53633U 22104AX  24044.14685179  .00000155  00000-0  27806-4 0  9992,2 53633  53.2179  15.9060 0001408 103.4760 256.6389 15.08843731 81147,6917.869,95.437,540.708,538.76,0.0
53633.0,STARLINK-4593,PAYLOAD,2024-02-14 04:57:38,15.08848679,0.0001628,53.2188,11.1555,109.6839,250.4329,2.9165e-05,1.76e-06,0.0,0 STARLINK-4593,1 53633U 22104AX  24045.20668984  .00000176  00000-0  29165-4 0  9998,2 53633  53.2188  11.1555 0001628 109.6839 250.4329 15.08848679 81303,6917.854,95.437,540.845,538.593,0.0
53633.0,STARLINK-4593,PAYLOAD,2024-02-14 14:29:56,15.08848113,0.0001285,53.2176,9.3688,95.8339,264.28,0.00022384,3.277e-05,0.0,0 STARLINK-4593,1 53633U 22104AX  24045.60412893  .00003277  00000-0  22384-3 0  9998,2 53633  53.2176   9.3688 0001285  95.8339 264.2800 15.08848113 82059,6917.856,95.437,540.61,538.832,0.0
53633.0,STARLINK-4593,PAYLOAD,2024-02-15 03:13:02,15.08829575,0.0001816,53.219,6.987,89.8945,270.2255,-2.467e-05,-6.81e-06,0.0,0 STARLINK-4593,1 53633U 22104AX  24046.13406075 -.00000681  00000-0 -24670-4 0  9991,2 53633  53.2190   6.9870 0001816  89.8945 270.2255 15.08829575 81441,6917.912,95.438,541.034,538.521,0.0
53633.0,STARLINK-4593,PAYLOAD,2024-02-15 04:48:26,15.08830876,0.0001947,53.2194,6.6909,87.2472,272.8743,-1.5039e-05,-5.27e-06,0.0,0 STARLINK-4593,1 53633U 22104AX  24046.20030197 -.00000527  00000-0 -15039-4 0  9995,2 53633  53.2194   6.6909 0001947  87.2472 272.8743 15.08830876 82141,6917.908,95.438,541.12,538.426,0.0
53633.0,STARLINK-4593,PAYLOAD,2024-02-15 20:42:17,15.08839415,0.0001772,53.2182,3.7177,85.4342,274.6853,5.5222e-05,5.91e-06,0.0,0 STARLINK-4593,1 53633U 22104AX  24046.86270079  .00000591  00000-0  55222-4 0  9999,2 53633  53.2182   3.7177 0001772  85.4342 274.6853 15.08839415 82246,6917.882,95.438,540.973,538.521,0.0
53633.0,STARLINK-4593,PAYLOAD,2024-02-16 04:39:12,15.08842682,0.000149,53.2186,2.233,88.7184,271.3978,0.00019416,2.804e-05,0.0,0 STARLINK-4593,1 53633U 22104AX  24047.19390026  .00002804  00000-0  19416-3 0  9994,2 53633  53.2186   2.2330 0001490  88.7184 271.3978 15.08842682 81603,6917.872,95.437,540.768,538.706,0.0
53633.0,STARLINK-4593,PAYLOAD,2024-02-16 14:11:31,15.08839842,0.000129,53.218,0.4462,104.4437,255.6698,0.00023804,3.503e-05,0.0,0 STARLINK-4593,1 53633U 22104AX  24047.59133959  .00003503  00000-0  23804-3 0  9991,2 53633  53.2180   0.4462 0001290 104.4437 255.6698 15.08839842 82359,6917.881,95.438,540.638,538.853,0.0
53633.0,STARLINK-4593,PAYLOAD,2024-02-16 20:33:04,15.08838923,0.0001512,53.2185,359.2581,89.7453,270.3713,0.00024715,3.647e-05,0.0,0 STARLINK-4593,1 53633U 22104AX  24047.85630323  .00003647  00000-0  24715-3 0  9998,2 53633  53.2185 359.2581 0001512  89.7453 270.3713 15.08838923 82396,6917.884,95.438,540.795,538.703,0.0
53633.0,STARLINK-4593,PAYLOAD,2024-02-17 06:05:22,15.0885298,0.0001902,53.2175,357.474,86.9999,273.121,0.00037173,5.635e-05,0.0,0 STARLINK-4593,1 53633U 22104AX  24048.25373809  .00005635  00000-0  37173-3 0  9997,2 53633  53.2175 357.4740 0001902  86.9999 273.1210 15.08852980 81761,6917.841,95.437,541.021,538.39,0.0
53633.0,STARLINK-4593,PAYLOAD,2024-02-17 14:02:19,15.08838466,0.0001935,53.2182,355.9876,79.9454,280.1756,6.9655e-05,8.21e-06,0.0,0 STARLINK-4593,1 53633U 22104AX  24048.58494405  .00000821  00000-0  69655-4 0  9992,2 53633  53.2182 355.9876 0001935  79.9454 280.1756 15.08838466 82505,6917.885,95.438,541.089,538.411,0.0
53633.0,STARLINK-4593,PAYLOAD,2024-02-18 02:45:23,15.08843668,0.0001404,53.2169,353.6078,92.9365,267.1788,0.00018692,2.688e-05,0.0,0 STARLINK-4593,1 53633U 22104AX  24049.11486101  .00002688  00000-0  18692-3 0  9993,2 53633  53.2169 353.6078 0001404  92.9365 267.1788 15.08843668 82584,6917.869,95.437,540.705,538.763,0.0
53633.0,STARLINK-4593,PAYLOAD,2024-02-19 02:36:10,15.08853871,0.0001344,53.2182,349.1466,93.5728,266.5418,0.0004182,6.376e-05,0.0,0 STARLINK-4593,1 53633U 22104AX  24050.10845703  .00006376  00000-0  41820-3 0  9998,2 53633  53.2182 349.1466 0001344  93.5728 266.5418 15.08853871 82044,6917.838,95.437,540.633,538.773,0.0
53633.0,STARLINK-4593,PAYLOAD,2024-02-19 05:46:56,15.08857984,0.0001389,53.2186,348.55,97.743,262.372,0.00052265,8.044e-05,0.0,0 STARLINK-4593,1 53633U 22104AX  24050.24093525  .00008044  00000-0  52265-3 0  9999,2 53633  53.2186 348.5500 0001389  97.7430 262.3720 15.08857984 82752,6917.825,95.436,540.651,538.73,0.0
53633.0,STARLINK-4593,PAYLOAD,2024-02-19 20:05:25,15.08833221,0.0001382,53.2184,345.8738,116.5569,243.5565,-0.00011925,-2.185e-05,0.0,0 STARLINK-4593,1 53633U 22104AX  24050.83710239 -.00002185  00000-0 -11925-3 0  9992,2 53633  53.2184 345.8738 0001382 116.5569 243.5565 15.08833221 82159,6917.901,95.438,540.722,538.81,0.0
53633.0,STARLINK-4593,PAYLOAD,2024-02-20 11:59:17,15.08842126,0.0001119,53.2176,342.9027,106.6779,253.4336,0.00032028,4.813e-05,0.0,0 STARLINK-4593,1 53633U 22104AX  24051.49950326  .00004813  00000-0  32028-3 0  9993,2 53633  53.2176 342.9027 0001119 106.6779 253.4336 15.08842126 82947,6917.874,95.437,540.513,538.965,0.0
53633.0,STARLINK-4593,PAYLOAD,2024-02-20 23:06:59,15.08844556,0.0001465,53.2205,340.8253,116.4127,243.7016,0.00046783,7.166e-05,0.0,0 STARLINK-4593,1 53633U 22104AX  24051.96318552  .00007166  00000-0  46783-3 0  9991,2 53633  53.2205 340.8253 0001465 116.4127 243.7016 15.08844556 83013,6917.866,95.437,540.745,538.718,0.0
53633.0,STARLINK-4593,PAYLOAD,2024-02-21 00:42:22,15.08847018,0.0001512,53.2201,340.528,117.0863,243.0283,0.00056515,8.72e-05,0.0,0 STARLINK-4593,1 53633U 22104AX  24052.02942506  .00008720  00000-0  56515-3 0  9992,2 53633  53.2201 340.5280 0001512 117.0863 243.0283 15.08847018 82332,6917.859,95.437,540.77,538.678,0.0
53633.0,STARLINK-4593,PAYLOAD,2024-02-21 11:50:04,15.08846832,0.0001487,53.2192,338.4425,90.6986,269.4177,0.00062804,9.723e-05,0.0,0 STARLINK-4593,1 53633U 22104AX  24052.49310587  .00009723  00000-0  62804-3 0  9993,2 53633  53.2192 338.4425 0001487  90.6986 269.4177 15.08846832 83092,6917.86,95.437,540.753,538.696,0.0
53633.0,STARLINK-4593,PAYLOAD,2024-02-21 22:57:46,15.08837741,0.0002105,53.2201,336.3653,103.5148,256.6079,6.7622e-05,7.88e-06,0.0,0 STARLINK-4593,1 53633U 22104AX  24052.95678938  .00000788  00000-0  67622-4 0  9997,2 53633  53.2201 336.3653 0002105 103.5148 256.6079 15.08837741 83161,6917.887,95.438,541.209,538.296,0.0
53633.0,STARLINK-4593,PAYLOAD,2024-02-22 03:43:56,15.08837112,0.0001529,53.2193,335.4726,106.9875,253.1285,8.15e-05,1.009e-05,0.0,0 STARLINK-4593,1 53633U 22104AX  24053.15550947  .00001009  00000-0  81500-4 0  9997,2 53633  53.2193 335.4726 0001529 106.9875 253.1285 15.08837112 82505,6917.889,95.438,540.812,538.696,0.0
53633.0,STARLINK-4593,PAYLOAD,2024-02-22 11:40:51,15.08841168,0.0001523,53.2195,333.9844,95.6417,264.4748,0.00015708,2.213e-05,0.0,0 STARLINK-4593,1 53633U 22104AX  24053.48670916  .00002213  00000-0  15708-3 0  9996,2 53633  53.2195 333.9844 0001523  95.6417 264.4748 15.08841168 83248,6917.877,95.437,540.795,538.688,0.0
53633.0,STARLINK-4593,PAYLOAD,2024-02-22 22:48:33,15.08847257,0.0001589,53.2191,331.9006,88.2193,271.8982,0.00024462,3.608e-05,0.0,0 STARLINK-4593,1 53633U 22104AX  24053.95038694  .00003608  00000-0  24462-3 0  9995,2 53633  53.2191 331.9006 0001589  88.2193 271.8982 15.08847257 83318,6917.858,95.437,540.822,538.624,0.0
53633.0,STARLINK-4593,PAYLOAD,2024-02-23 11:31:38,15.08842237,0.0001373,53.2191,329.5209,86.0065,274.1084,0.00026257,3.894e-05,0.0,0 STARLINK-4593,1 53633U 22104AX  24054.48030801  .00003894  00000-0  26257-3 0  9997,2 53633  53.2191 329.5209 0001373  86.0065 274.1084 15.08842237 82705,6917.874,95.437,540.688,538.789,0.0
53633.0,STARLINK-4593,PAYLOAD,2024-02-23 22:39:20,15.08837559,0.0001572,53.2186,327.4387,84.9197,275.1975,3.4077e-05,2.54e-06,0.0,0 STARLINK-4593,1 53633U 22104AX  24054.94399030  .00000254  00000-0  34077-4 0  9997,2 53633  53.2186 327.4387 0001572  84.9197 275.1975 15.08837559 83462,6917.888,95.438,540.84,538.665,0.0
53633.0,STARLINK-4593,PAYLOAD,2024-02-24 11:22:25,15.08846003,0.0001354,53.2173,325.0631,79.9152,280.1992,0.00027503,4.093e-05,0.0,0 STARLINK-4593,1 53633U 22104AX  24055.47390942  .00004093  00000-0  27503-3 0  9999,2 53633  53.2173 325.0631 0001354  79.9152 280.1992 15.08846003 82858,6917.862,95.437,540.664,538.79,0.0
53633.0,STARLINK-4593,PAYLOAD,2024-02-24 17:43:58,15.08844052,0.0001453,53.2173,323.874,83.9,276.2158,0.00024451,3.606e-05,0.0,0 STARLINK-4593,1 53633U 22104AX  24055.73887140  .00003606  00000-0  24451-3 0  9997,2 53633  53.2173 323.8740 0001453  83.9000 276.2158 15.08844052 83585,6917.868,95.437,540.738,538.728,0.0
53633.0,STARLINK-4593,PAYLOAD,2024-02-25 11:13:12,15.08850586,0.0001928,53.2184,320.6007,84.9768,275.1444,0.00041897,6.388e-05,0.0,0 STARLINK-4593,1 53633U 22104AX  24056.46750987  .00006388  00000-0  41897-3 0  9999,2 53633  53.2184 320.6007 0001928  84.9768 275.1444 15.08850586 83009,6917.848,95.437,541.047,538.379,0.0
53633.0,STARLINK-4593,PAYLOAD,2024-02-25 22:20:54,15.08853242,0.000163,53.2163,318.5198,86.2296,273.8883,0.00036258,5.489e-05,0.0,0 STARLINK-4593,1 53633U 22104AX  24056.93118580  .00005489  00000-0  36258-3 0  9994,2 53633  53.2163 318.5198 0001630  86.2296 273.8883 15.08853242 83761,6917.84,95.437,540.833,538.577,0.0
53633.0,STARLINK-4593,PAYLOAD,2024-02-26 03:07:03,15.08859573,0.0001518,53.2172,317.627,85.9151,274.2014,0.00042259,6.447e-05,0.0,0 STARLINK-4593,1 53633U 22104AX  24057.12990135  .00006447  00000-0  42259-3 0  9993,2 53633  53.2172 317.6270 0001518  85.9151 274.2014 15.08859573 83790,6917.821,95.436,540.736,538.635,0.0
